ONEWEB-0202             
1 48224U 21031Q   24003.83085148  .00000001  00000+0 -32648-4 0  9991
2 48224  87.8977 107.9400 0002601 100.2647 259.8776 13.14501825130736
ONEWEB-0204             
1 48225U 21031R   24003.78884376  .00000010  00000+0 -78441-5 0  9998
2 48225  87.8972 107.9607 0001211 104.0160 256.1105 13.14504137130622
ONEWEB-0205             
1 48226U 21031S   24003.84037089 -.00000255  00000+0 -72178-3 0  9998
2 48226  87.8977 107.9198 0001724  96.2314 263.9013 13.14500844130642
ONEWEB-0206             
1 48227U 21031T   24003.81341325  .00000216  00000+0  54925-3 0  9992
2 48227  87.8982 107.9181 0001626  97.5907 262.5408 13.14502196130593
ONEWEB-0182             
1 48228U 21031U   24003.80866586  .00000263  00000+0  67386-3 0  9990
2 48228  87.8979 107.9400 0001471 108.9492 251.1797 13.14500128130800
ONEWEB-0186             
1 48229U 21031V   24003.81975719  .00002730  00000+0  73284-2 0  9995
2 48229  87.8988 107.9020 0001790 107.2941 252.8385 13.14491911130758
ONEWEB-0181             
1 48230U 21031W   24003.79753061 -.00016631  00000+0 -44920-1 0  9999
2 48230  87.8975 107.9770 0001239  91.3091 268.8181 13.14585561130605
ONEWEB-0188             
1 48231U 21031X   24003.83561054 -.00000078  00000+0 -24456-3 0  9996
2 48231  87.8978 107.9669 0001638 101.3200 258.8114 13.14500826130519
